[{"OBJECT_NAME":"OBJECT H","OBJECT_ID":"2025-055H","EPOCH":"2026-03-09T23:29:50.051328","MEAN_MOTION":15.30330066,"ECCENTRICITY":0.00075967,"INCLINATION":97.636,"RA_OF_ASC_NODE":211.9572,"ARG_OF_PERICENTER":140.4354,"MEAN_ANOMALY":219.7441,"EPHEMERIS_TYPE":0,"CLASSIFICATION_TYPE":"U","NORAD_CAT_ID":63298,"ELEMENT_SET_NO":999,"REV_AT_EPOCH":5423,"BSTAR":0.0015582864,"MEAN_MOTION_DOT":0.00045901,"MEAN_MOTION_DDOT":0},{"OBJECT_NAME":"STARLINK-33713","OBJECT_ID":"2025-070V","EPOCH":"2026-03-09T12:34:16.421952","MEAN_MOTION":15.27596738,"ECCENTRICITY":5.821e-5,"INCLINATION":42.9982,"RA_OF_ASC_NODE":257.0273,"ARG_OF_PERICENTER":282.1548,"MEAN_ANOMALY":77.9238,"EPHEMERIS_TYPE":0,"CLASSIFICATION_TYPE":"U","NORAD_CAT_ID":63479,"ELEMENT_SET_NO":999,"REV_AT_EPOCH":5299,"BSTAR":0.00086628638,"MEAN_MOTION_DOT":0.00023665,"MEAN_MOTION_DDOT":0}]
